ORBCOMM FM05            
1 25117U 97084F   24285.00266656  .00018680  00000+0  54397-2 0  9998
2 25117  45.0137 122.9276 0001994  74.5582 285.5489 14.43998683405501
ORBCOMM FM06            
1 25118U 97084G   24284.90955726  .00020056  00000+0  58203-2 0  9990
2 25118  45.0126 123.4251 0001517 102.9848  35.5512 14.44129044405486
ORBCOMM FM07            
1 25119U 97084H   24284.88467368  .00019143  00000+0  55703-2 0  9995
2 25119  45.0125 124.1917 0002466  57.4104 302.6985 14.44022406405471
ORBCOMM FM03            
1 25158U 98007B   24284.86414722  .00011719  00000+0  42516-2 0  9997
2 25158 107.9701 343.8667 0047491 322.0439  37.7356 14.33096212388307
ORBCOMM FM04            
1 25159U 98007C   24284.89381407  .00011410  00000+0  41277-2 0  9995
2 25159 107.9682 346.9726 0043183 319.3240  40.4677 14.33363942388482
ORBCOMM FM17            
1 25413U 98046A   24285.16639278  .00023305  00000+0  82994-2 0  9991
2 25413  44.9957 351.9513 0001092 328.0578  32.0202 14.33972338367588
ORBCOMM FM18            
1 25414U 98046B   24285.13104576  .00035871  00000+0  11973-1 0  9996
2 25414  44.9926 275.8117 0002222  90.0346 270.0757 14.37002221368572
ORBCOMM FM19            
1 25415U 98046C   24285.12314491  .00035393  00000+0  11856-1 0  9994
2 25415  44.9933 277.4705 0001367  57.1997 344.6524 14.36831381368562
