<?xml version="1.0" encoding="UTF-8"?>
<ndm xmlns:xsi="http://www.w3.org/2001/XMLSchema-instance" xsi:noNamespaceSchemaLocation="https://sanaregistry.org/r/ndmxml_unqualified/ndmxml-2.0.0-master-2.0.xsd">
<omm id="CCSDS_OMM_VERS" version="2.0">
<header><CREATION_DATE/><ORIGINATOR/></header><body><segment><metadata><OBJECT_NAME>ORBCOMM FM05</OBJECT_NAME><OBJECT_ID>1997-084F</OBJECT_ID><CENTER_NAME>EARTH</CENTER_NAME><REF_FRAME>TEME</REF_FRAME><TIME_SYSTEM>UTC</TIME_SYSTEM><MEAN_ELEMENT_THEORY>SGP4</MEAN_ELEMENT_THEORY></metadata><data><meanElements><EPOCH>2024-10-11T00:03:50.390784</EPOCH><MEAN_MOTION>14.43998683</MEAN_MOTION><ECCENTRICITY>.0001994</ECCENTRICITY><INCLINATION>45.0137</INCLINATION><RA_OF_ASC_NODE>122.9276</RA_OF_ASC_NODE><ARG_OF_PERICENTER>74.5582</ARG_OF_PERICENTER><MEAN_ANOMALY>285.5489</MEAN_ANOMALY></meanElements><tleParameters><EPHEMERIS_TYPE>0</EPHEMERIS_TYPE><CLASSIFICATION_TYPE>U</CLASSIFICATION_TYPE><NORAD_CAT_ID>25117</NORAD_CAT_ID><ELEMENT_SET_NO>999</ELEMENT_SET_NO><REV_AT_EPOCH>40550</REV_AT_EPOCH><BSTAR>.54397E-2</BSTAR><MEAN_MOTION_DOT>.1868E-3</MEAN_MOTION_DOT><MEAN_MOTION_DDOT>0</MEAN_MOTION_DDOT></tleParameters></data></segment></body></omm>
<omm id="CCSDS_OMM_VERS" version="2.0">
<header><CREATION_DATE/><ORIGINATOR/></header><body><segment><metadata><OBJECT_NAME>ORBCOMM FM06</OBJECT_NAME><OBJECT_ID>1997-084G</OBJECT_ID><CENTER_NAME>EARTH</CENTER_NAME><REF_FRAME>TEME</REF_FRAME><TIME_SYSTEM>UTC</TIME_SYSTEM><MEAN_ELEMENT_THEORY>SGP4</MEAN_ELEMENT_THEORY></metadata><data><meanElements><EPOCH>2024-10-10T21:49:45.747264</EPOCH><MEAN_MOTION>14.44129044</MEAN_MOTION><ECCENTRICITY>.0001517</ECCENTRICITY><INCLINATION>45.0126</INCLINATION><RA_OF_ASC_NODE>123.4251</RA_OF_ASC_NODE><ARG_OF_PERICENTER>102.9848</ARG_OF_PERICENTER><MEAN_ANOMALY>35.5512</MEAN_ANOMALY></meanElements><tleParameters><EPHEMERIS_TYPE>0</EPHEMERIS_TYPE><CLASSIFICATION_TYPE>U</CLASSIFICATION_TYPE><NORAD_CAT_ID>25118</NORAD_CAT_ID><ELEMENT_SET_NO>999</ELEMENT_SET_NO><REV_AT_EPOCH>40548</REV_AT_EPOCH><BSTAR>.58203E-2</BSTAR><MEAN_MOTION_DOT>.20056E-3</MEAN_MOTION_DOT><MEAN_MOTION_DDOT>0</MEAN_MOTION_DDOT></tleParameters></data></segment></body></omm>
<omm id="CCSDS_OMM_VERS" version="2.0">
<header><CREATION_DATE/><ORIGINATOR/></header><body><segment><metadata><OBJECT_NAME>ORBCOMM FM07</OBJECT_NAME><OBJECT_ID>1997-084H</OBJECT_ID><CENTER_NAME>EARTH</CENTER_NAME><REF_FRAME>TEME</REF_FRAME><TIME_SYSTEM>UTC</TIME_SYSTEM><MEAN_ELEMENT_THEORY>SGP4</MEAN_ELEMENT_THEORY></metadata><data><meanElements><EPOCH>2024-10-10T21:13:55.805952</EPOCH><MEAN_MOTION>14.44022406</MEAN_MOTION><ECCENTRICITY>.0002466</ECCENTRICITY><INCLINATION>45.0125</INCLINATION><RA_OF_ASC_NODE>124.1917</RA_OF_ASC_NODE><ARG_OF_PERICENTER>57.4104</ARG_OF_PERICENTER><MEAN_ANOMALY>302.6985</MEAN_ANOMALY></meanElements><tleParameters><EPHEMERIS_TYPE>0</EPHEMERIS_TYPE><CLASSIFICATION_TYPE>U</CLASSIFICATION_TYPE><NORAD_CAT_ID>25119</NORAD_CAT_ID><ELEMENT_SET_NO>999</ELEMENT_SET_NO><REV_AT_EPOCH>40547</REV_AT_EPOCH><BSTAR>.55703E-2</BSTAR><MEAN_MOTION_DOT>.19143E-3</MEAN_MOTION_DOT><MEAN_MOTION_DDOT>0</MEAN_MOTION_DDOT></tleParameters></data></segment></body></omm>
<omm id="CCSDS_OMM_VERS" version="2.0">
<header><CREATION_DATE/><ORIGINATOR/></header><body><segment><metadata><OBJECT_NAME>ORBCOMM FM03</OBJECT_NAME><OBJECT_ID>1998-007B</OBJECT_ID><CENTER_NAME>EARTH</CENTER_NAME><REF_FRAME>TEME</REF_FRAME><TIME_SYSTEM>UTC</TIME_SYSTEM><MEAN_ELEMENT_THEORY>SGP4</MEAN_ELEMENT_THEORY></metadata><data><meanElements><EPOCH>2024-10-10T20:44:22.319808</EPOCH><MEAN_MOTION>14.33096212</MEAN_MOTION><ECCENTRICITY>.0047491</ECCENTRICITY><INCLINATION>107.9701</INCLINATION><RA_OF_ASC_NODE>343.8667</RA_OF_ASC_NODE><ARG_OF_PERICENTER>322.0439</ARG_OF_PERICENTER><MEAN_ANOMALY>37.7356</MEAN_ANOMALY></meanElements><tleParameters><EPHEMERIS_TYPE>0</EPHEMERIS_TYPE><CLASSIFICATION_TYPE>U</CLASSIFICATION_TYPE><NORAD_CAT_ID>25158</NORAD_CAT_ID><ELEMENT_SET_NO>999</ELEMENT_SET_NO><REV_AT_EPOCH>38830</REV_AT_EPOCH><BSTAR>.42516E-2</BSTAR><MEAN_MOTION_DOT>.11719E-3</MEAN_MOTION_DOT><MEAN_MOTION_DDOT>0</MEAN_MOTION_DDOT></tleParameters></data></segment></body></omm>
<omm id="CCSDS_OMM_VERS" version="2.0">
<header><CREATION_DATE/><ORIGINATOR/></header><body><segment><metadata><OBJECT_NAME>ORBCOMM FM04</OBJECT_NAME><OBJECT_ID>1998-007C</OBJECT_ID><CENTER_NAME>EARTH</CENTER_NAME><REF_FRAME>TEME</REF_FRAME><TIME_SYSTEM>UTC</TIME_SYSTEM><MEAN_ELEMENT_THEORY>SGP4</MEAN_ELEMENT_THEORY></metadata><data><meanElements><EPOCH>2024-10-10T21:27:05.535648</EPOCH><MEAN_MOTION>14.33363942</MEAN_MOTION><ECCENTRICITY>.0043183</ECCENTRICITY><INCLINATION>107.9682</INCLINATION><RA_OF_ASC_NODE>346.9726</RA_OF_ASC_NODE><ARG_OF_PERICENTER>319.3240</ARG_OF_PERICENTER><MEAN_ANOMALY>40.4677</MEAN_ANOMALY></meanElements><tleParameters><EPHEMERIS_TYPE>0</EPHEMERIS_TYPE><CLASSIFICATION_TYPE>U</CLASSIFICATION_TYPE><NORAD_CAT_ID>25159</NORAD_CAT_ID><ELEMENT_SET_NO>999</ELEMENT_SET_NO><REV_AT_EPOCH>38848</REV_AT_EPOCH><BSTAR>.41277E-2</BSTAR><MEAN_MOTION_DOT>.1141E-3</MEAN_MOTION_DOT><MEAN_MOTION_DDOT>0</MEAN_MOTION_DDOT></tleParameters></data></segment></body></omm>
<omm id="CCSDS_OMM_VERS" version="2.0">
<header><CREATION_DATE/><ORIGINATOR/></header><body><segment><metadata><OBJECT_NAME>ORBCOMM FM17</OBJECT_NAME><OBJECT_ID>1998-046A</OBJECT_ID><CENTER_NAME>EARTH</CENTER_NAME><REF_FRAME>TEME</REF_FRAME><TIME_SYSTEM>UTC</TIME_SYSTEM><MEAN_ELEMENT_THEORY>SGP4</MEAN_ELEMENT_THEORY></metadata><data><meanElements><EPOCH>2024-10-11T03:59:36.336192</EPOCH><MEAN_MOTION>14.33972338</MEAN_MOTION><ECCENTRICITY>.0001092</ECCENTRICITY><INCLINATION>44.9957</INCLINATION><RA_OF_ASC_NODE>351.9513</RA_OF_ASC_NODE><ARG_OF_PERICENTER>328.0578</ARG_OF_PERICENTER><MEAN_ANOMALY>32.0202</MEAN_ANOMALY></meanElements><tleParameters><EPHEMERIS_TYPE>0</EPHEMERIS_TYPE><CLASSIFICATION_TYPE>U</CLASSIFICATION_TYPE><NORAD_CAT_ID>25413</NORAD_CAT_ID><ELEMENT_SET_NO>999</ELEMENT_SET_NO><REV_AT_EPOCH>36758</REV_AT_EPOCH><BSTAR>.82994E-2</BSTAR><MEAN_MOTION_DOT>.23305E-3</MEAN_MOTION_DOT><MEAN_MOTION_DDOT>0</MEAN_MOTION_DDOT></tleParameters></data></segment></body></omm>
<omm id="CCSDS_OMM_VERS" version="2.0">
<header><CREATION_DATE/><ORIGINATOR/></header><body><segment><metadata><OBJECT_NAME>ORBCOMM FM18</OBJECT_NAME><OBJECT_ID>1998-046B</OBJECT_ID><CENTER_NAME>EARTH</CENTER_NAME><REF_FRAME>TEME</REF_FRAME><TIME_SYSTEM>UTC</TIME_SYSTEM><MEAN_ELEMENT_THEORY>SGP4</MEAN_ELEMENT_THEORY></metadata><data><meanElements><EPOCH>2024-10-11T03:08:42.353664</EPOCH><MEAN_MOTION>14.37002221</MEAN_MOTION><ECCENTRICITY>.0002222</ECCENTRICITY><INCLINATION>44.9926</INCLINATION><RA_OF_ASC_NODE>275.8117</RA_OF_ASC_NODE><ARG_OF_PERICENTER>90.0346</ARG_OF_PERICENTER><MEAN_ANOMALY>270.0757</MEAN_ANOMALY></meanElements><tleParameters><EPHEMERIS_TYPE>0</EPHEMERIS_TYPE><CLASSIFICATION_TYPE>U</CLASSIFICATION_TYPE><NORAD_CAT_ID>25414</NORAD_CAT_ID><ELEMENT_SET_NO>999</ELEMENT_SET_NO><REV_AT_EPOCH>36857</REV_AT_EPOCH><BSTAR>.11973E-1</BSTAR><MEAN_MOTION_DOT>.35871E-3</MEAN_MOTION_DOT><MEAN_MOTION_DDOT>0</MEAN_MOTION_DDOT></tleParameters></data></segment></body></omm>
<omm id="CCSDS_OMM_VERS" version="2.0">
<header><CREATION_DATE/><ORIGINATOR/></header><body><segment><metadata><OBJECT_NAME>ORBCOMM FM19</OBJECT_NAME><OBJECT_ID>1998-046C</OBJECT_ID><CENTER_NAME>EARTH</CENTER_NAME><REF_FRAME>TEME</REF_FRAME><TIME_SYSTEM>UTC</TIME_SYSTEM><MEAN_ELEMENT_THEORY>SGP4</MEAN_ELEMENT_THEORY></metadata><data><meanElements><EPOCH>2024-10-11T02:57:19.720224</EPOCH><MEAN_MOTION>14.36831381</MEAN_MOTION><ECCENTRICITY>.0001367</ECCENTRICITY><INCLINATION>44.9933</INCLINATION><RA_OF_ASC_NODE>277.4705</RA_OF_ASC_NODE><ARG_OF_PERICENTER>57.1997</ARG_OF_PERICENTER><MEAN_ANOMALY>344.6524</MEAN_ANOMALY></meanElements><tleParameters><EPHEMERIS_TYPE>0</EPHEMERIS_TYPE><CLASSIFICATION_TYPE>U</CLASSIFICATION_TYPE><NORAD_CAT_ID>25415</NORAD_CAT_ID><ELEMENT_SET_NO>999</ELEMENT_SET_NO><REV_AT_EPOCH>36856</REV_AT_EPOCH><BSTAR>.11856E-1</BSTAR><MEAN_MOTION_DOT>.35393E-3</MEAN_MOTION_DOT><MEAN_MOTION_DDOT>0</MEAN_MOTION_DDOT></tleParameters></data></segment></body></omm>

</ndm>
